SENTINEL-2A             
1 40697U 15028A   20210.17261423  .00000001  00000-0  16904-4 0  9998
2 40697  98.5687 283.8335 0001120  90.1542 269.9785 14.30816846266289
AVUM R/B                
1 40698U 15028B   20209.85320037  .00001159  00000-0  55310-4 0  9998
2 40698  98.6441 148.8358 0253843 245.4577 111.9992 14.97830421278320
